[{"OBJECT_NAME":"ICEYE-X39","OBJECT_ID":"2024-149CG","EPOCH":"2026-04-27T04:04:39.921600","MEAN_MOTION":14.99596519,"ECCENTRICITY":0.0001155,"INCLINATION":97.6828,"RA_OF_ASC_NODE":194.8789,"ARG_OF_PERICENTER":194.3177,"MEAN_ANOMALY":165.8013,"EPHEMERIS_TYPE":0,"CLASSIFICATION_TYPE":"U","NORAD_CAT_ID":60546,"ELEMENT_SET_NO":999,"REV_AT_EPOCH":9247,"BSTAR":0.00045456,"MEAN_MOTION_DOT":5.536e-5,"MEAN_MOTION_DDOT":0},{"OBJECT_NAME":"UMBRA-10","OBJECT_ID":"2024-149CH","EPOCH":"2026-04-27T05:14:56.270112","MEAN_MOTION":15.16479814,"ECCENTRICITY":0.0002449,"INCLINATION":97.6968,"RA_OF_ASC_NODE":203.6436,"ARG_OF_PERICENTER":131.4747,"MEAN_ANOMALY":228.6695,"EPHEMERIS_TYPE":0,"CLASSIFICATION_TYPE":"U","NORAD_CAT_ID":60547,"ELEMENT_SET_NO":999,"REV_AT_EPOCH":9300,"BSTAR":0.0010371,"MEAN_MOTION_DOT":0.00020163,"MEAN_MOTION_DDOT":0},{"OBJECT_NAME":"ICEYE-X33","OBJECT_ID":"2024-149CJ","EPOCH":"2026-04-27T02:25:58.577088","MEAN_MOTION":15.00901622,"ECCENTRICITY":0.0002359,"INCLINATION":97.7125,"RA_OF_ASC_NODE":196.572,"ARG_OF_PERICENTER":13.9287,"MEAN_ANOMALY":346.2002,"EPHEMERIS_TYPE":0,"CLASSIFICATION_TYPE":"U","NORAD_CAT_ID":60548,"ELEMENT_SET_NO":999,"REV_AT_EPOCH":9254,"BSTAR":0.00040654,"MEAN_MOTION_DOT":5.117e-5,"MEAN_MOTION_DDOT":0},{"OBJECT_NAME":"ICEYE-X40","OBJECT_ID":"2024-149CK","EPOCH":"2026-04-27T04:44:43.200672","MEAN_MOTION":14.97767272,"ECCENTRICITY":0.0003731,"INCLINATION":97.6811,"RA_OF_ASC_NODE":194.5176,"ARG_OF_PERICENTER":241.8535,"MEAN_ANOMALY":118.2311,"EPHEMERIS_TYPE":0,"CLASSIFICATION_TYPE":"U","NORAD_CAT_ID":60549,"ELEMENT_SET_NO":999,"REV_AT_EPOCH":9244,"BSTAR":0.00015163,"MEAN_MOTION_DOT":1.722e-5,"MEAN_MOTION_DDOT":0},{"OBJECT_NAME":"SATELIOT_1","OBJECT_ID":"2024-149CL","EPOCH":"2026-04-27T04:37:00.113088","MEAN_MOTION":14.97839261,"ECCENTRICITY":0.0005474,"INCLINATION":97.6754,"RA_OF_ASC_NODE":193.9452,"ARG_OF_PERICENTER":241.3189,"MEAN_ANOMALY":118.7484,"EPHEMERIS_TYPE":0,"CLASSIFICATION_TYPE":"U","NORAD_CAT_ID":60550,"ELEMENT_SET_NO":999,"REV_AT_EPOCH":9243,"BSTAR":0.00014914,"MEAN_MOTION_DOT":1.696e-5,"MEAN_MOTION_DDOT":0},{"OBJECT_NAME":"BRO-14","OBJECT_ID":"2024-149CM","EPOCH":"2026-04-27T03:57:55.117728","MEAN_MOTION":14.96083889,"ECCENTRICITY":0.0004995,"INCLINATION":97.6885,"RA_OF_ASC_NODE":193.8598,"ARG_OF_PERICENTER":266.7414,"MEAN_ANOMALY":93.3236,"EPHEMERIS_TYPE":0,"CLASSIFICATION_TYPE":"U","NORAD_CAT_ID":60551,"ELEMENT_SET_NO":999,"REV_AT_EPOCH":9236,"BSTAR":0.00020865,"MEAN_MOTION_DOT":2.288e-5,"MEAN_MOTION_DDOT":0},{"OBJECT_NAME":"SATELIOT_3","OBJECT_ID":"2024-149CN","EPOCH":"2026-04-26T16:48:17.194464","MEAN_MOTION":14.97844369,"ECCENTRICITY":0.00031945,"INCLINATION":97.6837,"RA_OF_ASC_NODE":194.2039,"ARG_OF_PERICENTER":243.7477,"MEAN_ANOMALY":116.3418,"EPHEMERIS_TYPE":0,"CLASSIFICATION_TYPE":"U","NORAD_CAT_ID":60552,"ELEMENT_SET_NO":999,"REV_AT_EPOCH":9237,"BSTAR":0.00026531375,"MEAN_MOTION_DOT":3.062e-5,"MEAN_MOTION_DDOT":0},{"OBJECT_NAME":"BRO-15","OBJECT_ID":"2024-149CP","EPOCH":"2026-04-27T03:30:42.995808","MEAN_MOTION":14.96031024,"ECCENTRICITY":0.0006641,"INCLINATION":97.681,"RA_OF_ASC_NODE":193.4914,"ARG_OF_PERICENTER":254.3389,"MEAN_ANOMALY":105.71,"EPHEMERIS_TYPE":0,"CLASSIFICATION_TYPE":"U","NORAD_CAT_ID":60553,"ELEMENT_SET_NO":999,"REV_AT_EPOCH":9237,"BSTAR":0.0001165,"MEAN_MOTION_DOT":1.251e-5,"MEAN_MOTION_DDOT":0},{"OBJECT_NAME":"UM5-RIBAT","OBJECT_ID":"2024-149CQ","EPOCH":"2026-04-27T04:55:21.028800","MEAN_MOTION":15.00785403,"ECCENTRICITY":0.0001927,"INCLINATION":97.6673,"RA_OF_ASC_NODE":195.6921,"ARG_OF_PERICENTER":138.5661,"MEAN_ANOMALY":221.5709,"EPHEMERIS_TYPE":0,"CLASSIFICATION_TYPE":"U","NORAD_CAT_ID":60554,"ELEMENT_SET_NO":999,"REV_AT_EPOCH":9254,"BSTAR":0.00028925,"MEAN_MOTION_DOT":3.612e-5,"MEAN_MOTION_DDOT":0},{"OBJECT_NAME":"UM5-EOSAT","OBJECT_ID":"2024-149CR","EPOCH":"2026-04-27T04:27:16.289280","MEAN_MOTION":15.01192818,"ECCENTRICITY":0.0005011,"INCLINATION":97.6677,"RA_OF_ASC_NODE":196.5655,"ARG_OF_PERICENTER":277.8354,"MEAN_ANOMALY":82.2301,"EPHEMERIS_TYPE":0,"CLASSIFICATION_TYPE":"U","NORAD_CAT_ID":60555,"ELEMENT_SET_NO":999,"REV_AT_EPOCH":9256,"BSTAR":0.00027184,"MEAN_MOTION_DOT":3.428e-5,"MEAN_MOTION_DDOT":0},{"OBJECT_NAME":"LASARSAT","OBJECT_ID":"2024-247Q","EPOCH":"2026-04-27T05:06:36.750240","MEAN_MOTION":15.43279568,"ECCENTRICITY":0.0005402,"INCLINATION":44.9747,"RA_OF_ASC_NODE":187.9588,"ARG_OF_PERICENTER":1.1726,"MEAN_ANOMALY":358.9174,"EPHEMERIS_TYPE":0,"CLASSIFICATION_TYPE":"U","NORAD_CAT_ID":62391,"ELEMENT_SET_NO":999,"REV_AT_EPOCH":7543,"BSTAR":0.00083957,"MEAN_MOTION_DOT":0.00038029,"MEAN_MOTION_DDOT":0},{"OBJECT_NAME":"CROCUBE","OBJECT_ID":"2024-247T","EPOCH":"2026-04-27T04:49:47.309664","MEAN_MOTION":15.44760331,"ECCENTRICITY":0.0005113,"INCLINATION":44.9716,"RA_OF_ASC_NODE":186.0905,"ARG_OF_PERICENTER":359.4804,"MEAN_ANOMALY":0.6079,"EPHEMERIS_TYPE":0,"CLASSIFICATION_TYPE":"U","NORAD_CAT_ID":62394,"ELEMENT_SET_NO":999,"REV_AT_EPOCH":7545,"BSTAR":0.00088197,"MEAN_MOTION_DOT":0.00042061,"MEAN_MOTION_DDOT":0},{"OBJECT_NAME":"TEVEL2-4","OBJECT_ID":"2025-052D","EPOCH":"2026-04-27T03:51:44.568000","MEAN_MOTION":15.32818216,"ECCENTRICITY":8.01e-5,"INCLINATION":97.3963,"RA_OF_ASC_NODE":13.5238,"ARG_OF_PERICENTER":350.8592,"MEAN_ANOMALY":9.2635,"EPHEMERIS_TYPE":0,"CLASSIFICATION_TYPE":"U","NORAD_CAT_ID":63213,"ELEMENT_SET_NO":999,"REV_AT_EPOCH":6229,"BSTAR":0.00073188,"MEAN_MOTION_DOT":0.00023163,"MEAN_MOTION_DDOT":0},{"OBJECT_NAME":"TEVEL2-5","OBJECT_ID":"2025-052E","EPOCH":"2026-04-27T04:13:38.103744","MEAN_MOTION":15.32672203,"ECCENTRICITY":8.57e-5,"INCLINATION":97.3961,"RA_OF_ASC_NODE":13.5004,"ARG_OF_PERICENTER":345.4293,"MEAN_ANOMALY":14.6924,"EPHEMERIS_TYPE":0,"CLASSIFICATION_TYPE":"U","NORAD_CAT_ID":63214,"ELEMENT_SET_NO":999,"REV_AT_EPOCH":6229,"BSTAR":0.00074582,"MEAN_MOTION_DOT":0.00023499,"MEAN_MOTION_DDOT":0},{"OBJECT_NAME":"TEVEL2-6","OBJECT_ID":"2025-052F","EPOCH":"2026-04-27T04:29:36.295296","MEAN_MOTION":15.32633851,"ECCENTRICITY":9.08e-5,"INCLINATION":97.3966,"RA_OF_ASC_NODE":13.4966,"ARG_OF_PERICENTER":345.0631,"MEAN_ANOMALY":15.0584,"EPHEMERIS_TYPE":0,"CLASSIFICATION_TYPE":"U","NORAD_CAT_ID":63215,"ELEMENT_SET_NO":999,"REV_AT_EPOCH":6229,"BSTAR":0.00075308,"MEAN_MOTION_DOT":0.00023701,"MEAN_MOTION_DDOT":0},{"OBJECT_NAME":"TEVEL2-1","OBJECT_ID":"2025-052H","EPOCH":"2026-04-27T03:13:24.612096","MEAN_MOTION":15.32152973,"ECCENTRICITY":0.000156,"INCLINATION":97.3938,"RA_OF_ASC_NODE":13.1257,"ARG_OF_PERICENTER":1.1241,"MEAN_ANOMALY":359.0004,"EPHEMERIS_TYPE":0,"CLASSIFICATION_TYPE":"U","NORAD_CAT_ID":63217,"ELEMENT_SET_NO":999,"REV_AT_EPOCH":6227,"BSTAR":0.00062253,"MEAN_MOTION_DOT":0.00019275,"MEAN_MOTION_DDOT":0},{"OBJECT_NAME":"TEVEL2-3","OBJECT_ID":"2025-052J","EPOCH":"2026-04-27T04:42:07.576128","MEAN_MOTION":15.32205363,"ECCENTRICITY":0.0001564,"INCLINATION":97.3943,"RA_OF_ASC_NODE":13.2033,"ARG_OF_PERICENTER":2.4862,"MEAN_ANOMALY":357.6387,"EPHEMERIS_TYPE":0,"CLASSIFICATION_TYPE":"U","NORAD_CAT_ID":63218,"ELEMENT_SET_NO":999,"REV_AT_EPOCH":6228,"BSTAR":0.00073755,"MEAN_MOTION_DOT":0.00022899,"MEAN_MOTION_DDOT":0}]
