ICEYE-X39               
1 60546U 24149CG  26117.16990650  .00005536  00000+0  45456-3 0  9999
2 60546  97.6828 194.8789 0001155 194.3177 165.8013 14.99596519 92477
UMBRA-10                
1 60547U 24149CH  26117.21870683  .00020163  00000+0  10371-2 0  9999
2 60547  97.6968 203.6436 0002449 131.4747 228.6695 15.16479814 93005
ICEYE-X33               
1 60548U 24149CJ  26117.10137242  .00005117  00000+0  40654-3 0  9995
2 60548  97.7125 196.5720 0002359  13.9287 346.2002 15.00901622 92548
ICEYE-X40               
1 60549U 24149CK  26117.19772223  .00001722  00000+0  15163-3 0  9994
2 60549  97.6811 194.5176 0003731 241.8535 118.2311 14.97767272 92441
SATELIOT_1              
1 60550U 24149CL  26117.19236242  .00001696  00000+0  14914-3 0  9995
2 60550  97.6754 193.9452 0005474 241.3189 118.7484 14.97839261 92438
BRO-14                  
1 60551U 24149CM  26117.16522127  .00002288  00000+0  20865-3 0  9993
2 60551  97.6885 193.8598 0004995 266.7414  93.3236 14.96083889 92364
SATELIOT_3              
1 60552U 24149CN  26116.70019901  .00003062  00000+0  26531-3 0  9991
2 60552  97.6837 194.2039 0003194 243.7477 116.3418 14.97844369 92379
BRO-15                  
1 60553U 24149CP  26117.14633097  .00001251  00000+0  11650-3 0  9993
2 60553  97.6810 193.4914 0006641 254.3389 105.7100 14.96031024 92379
UM5-RIBAT               
1 60554U 24149CQ  26117.20510450  .00003612  00000+0  28925-3 0  9994
2 60554  97.6673 195.6921 0001927 138.5661 221.5709 15.00785403 92541
UM5-EOSAT               
1 60555U 24149CR  26117.18560520  .00003428  00000+0  27184-3 0  9996
2 60555  97.6677 196.5655 0005011 277.8354  82.2301 15.01192818 92569
LASARSAT                
1 62391U 24247Q   26117.21292535  .00038029  00000+0  83957-3 0  9992
2 62391  44.9747 187.9588 0005402   1.1726 358.9174 15.43279568 75438
CROCUBE                 
1 62394U 24247T   26117.20124201  .00042061  00000+0  88197-3 0  9990
2 62394  44.9716 186.0905 0005113 359.4804   0.6079 15.44760331 75456
TEVEL2-4                
1 63213U 25052D   26117.16093250  .00023163  00000+0  73188-3 0  9996
2 63213  97.3963  13.5238 0000801 350.8592   9.2635 15.32818216 62298
TEVEL2-5                
1 63214U 25052E   26117.17613546  .00023499  00000+0  74582-3 0  9995
2 63214  97.3961  13.5004 0000857 345.4293  14.6924 15.32672203 62292
TEVEL2-6                
1 63215U 25052F   26117.18722564  .00023701  00000+0  75308-3 0  9991
2 63215  97.3966  13.4966 0000908 345.0631  15.0584 15.32633851 62296
TEVEL2-1                
1 63217U 25052H   26117.13431264  .00019275  00000+0  62253-3 0  9998
2 63217  97.3938  13.1257 0001560   1.1241 359.0004 15.32152973 62276
TEVEL2-3                
1 63218U 25052J   26117.19592102  .00022899  00000+0  73755-3 0  9999
2 63218  97.3943  13.2033 0001564   2.4862 357.6387 15.32205363 62284
